start=new Date('2023-05-18T00:00:00.000Z').valueOf();
sats=[{"RCS_SIZE":"LARGE","DECAY_DATE":null,"RA_OF_ASC_NODE":"237.4082","FILE":"3910633","MEAN_MOTION":"15.06425854","MEAN_MOTION_DOT":"0.00019358","SITE":"AFETR","CLASSIFICATION_TYPE":"U","GP_ID":"232041106","MEAN_MOTION_DDOT":"0.0000000000000","PERIOD":"95.590","LAUNCH_DATE":"2020-09-03","COUNTRY_CODE":"US","ARG_OF_PERICENTER":"86.6547","INCLINATION":"53.0540","ECCENTRICITY":"0.00008470","CENTER_NAME":"EARTH","MEAN_ANOMALY":"273.4539","REV_AT_EPOCH":"15048","OBJECT_TYPE":"PAYLOAD","OBJECT_NAME":"STARLINK-1711","PERIAPSIS":"546.548","TIME_SYSTEM":"UTC","SEMIMAJOR_AXIS":"6925.269","TLE_LINE2":"2 46374  53.0540 237.4082 0000847  86.6547 273.4539 15.06425854150485","OBJECT_ID":"2020-062BB","APOAPSIS":"547.721","ELEMENT_SET_NO":"999","MEAN_ELEMENT_THEORY":"SGP4","REF_FRAME":"TEME","NORAD_CAT_ID":"46374","EPOCH":"2023-05-17T14:23:21.572736","EPHEMERIS_TYPE":"0","BSTAR":"0.00131400000000","TLE_LINE1":"1 46374U 20062BB  23137.59955524  .00019358  00000-0  13140-2 0  9991"},{"OBJECT_NAME":"STARLINK-1724","PERIAPSIS":"546.393","TIME_SYSTEM":"UTC","OBJECT_TYPE":"PAYLOAD","SEMIMAJOR_AXIS":"6925.294","TLE_LINE2":"2 46375  53.0543 262.3433 0001106  80.4496 279.6617 15.06417783150139","OBJECT_ID":"2020-062BC","INCLINATION":"53.0543","ECCENTRICITY":"0.00011060","ARG_OF_PERICENTER":"80.4496","COUNTRY_CODE":"US","CENTER_NAME":"EARTH","REV_AT_EPOCH":"15013","MEAN_ANOMALY":"279.6617","MEAN_ELEMENT_THEORY":"SGP4","EPHEMERIS_TYPE":"0","EPOCH":"2023-05-17T14:43:55.202304","TLE_LINE1":"1 46375U 20062BC  23137.61383336  .00014437  00000-0  98564-3 0  9998","BSTAR":"0.00098564000000","NORAD_CAT_ID":"46375","REF_FRAME":"TEME","APOAPSIS":"547.925","ELEMENT_SET_NO":"999","MEAN_MOTION":"15.06417783","MEAN_MOTION_DOT":"0.00014437","DECAY_DATE":null,"RCS_SIZE":"LARGE","RA_OF_ASC_NODE":"262.3433","FILE":"3910633","LAUNCH_DATE":"2020-09-03","SITE":"AFETR","CLASSIFICATION_TYPE":"U","PERIOD":"95.591","GP_ID":"232040857","MEAN_MOTION_DDOT":"0.0000000000000"},{"OBJECT_NAME":"STARLINK-1742","TIME_SYSTEM":"UTC","PERIAPSIS":"546.403","OBJECT_TYPE":"PAYLOAD","SEMIMAJOR_AXIS":"6925.277","TLE_LINE2":"2 46376  53.0536 262.2716 0001067  87.6498 272.4613 15.06423307150138","OBJECT_ID":"2020-062BD","INCLINATION":"53.0536","ECCENTRICITY":"0.00010670","COUNTRY_CODE":"US","ARG_OF_PERICENTER":"87.6498","CENTER_NAME":"EARTH","MEAN_ANOMALY":"272.4613","REV_AT_EPOCH":"15013","MEAN_ELEMENT_THEORY":"SGP4","EPHEMERIS_TYPE":"0","EPOCH":"2023-05-17T15:05:08.941344","BSTAR":"0.00135660000000","TLE_LINE1":"1 46376U 20062BD  23137.62857571  .00019995  00000-0  13566-2 0  9999","NORAD_CAT_ID":"46376","REF_FRAME":"TEME","APOAPSIS":"547.881","ELEMENT_SET_NO":"999","MEAN_MOTION":"15.06423307","MEAN_MOTION_DOT":"0.00019995","RCS_SIZE":"LARGE","DECAY_DATE":null,"RA_OF_ASC_NODE":"262.2716","FILE":"3910633","LAUNCH_DATE":"2020-09-03","CLASSIFICATION_TYPE":"U","SITE":"AFETR","PERIOD":"95.591","GP_ID":"232040106","MEAN_MOTION_DDOT":"0.0000000000000"},{"TLE_LINE1":"1 46380U 20062BH  23137.72763858  .00000004  00000-0  19163-4 0  9991","BSTAR":"0.00001916300000","EPOCH":"2023-05-17T17:27:47.973312","EPHEMERIS_TYPE":"0","NORAD_CAT_ID":"46380","REF_FRAME":"TEME","MEAN_ELEMENT_THEORY":"SGP4","ELEMENT_SET_NO":"999","APOAPSIS":"547.964","OBJECT_ID":"2020-062BH","TLE_LINE2":"2 46380  53.0536 286.8273 0000988  78.2004 281.9096 15.06378370149804","SEMIMAJOR_AXIS":"6925.415","TIME_SYSTEM":"UTC","PERIAPSIS":"546.596","OBJECT_NAME":"STARLINK-1758","OBJECT_TYPE":"PAYLOAD","MEAN_ANOMALY":"281.9096","REV_AT_EPOCH":"14980","CENTER_NAME":"EARTH","ECCENTRICITY":"0.00009880","INCLINATION":"53.0536","COUNTRY_CODE":"US","ARG_OF_PERICENTER":"78.2004","LAUNCH_DATE":"2020-09-03","PERIOD":"95.594","GP_ID":"232040356","MEAN_MOTION_DDOT":"0.0000000000000","SITE":"AFETR","CLASSIFICATION_TYPE":"U","MEAN_MOTION_DOT":"0.00000004","MEAN_MOTION":"15.06378370","FILE":"3910633","RA_OF_ASC_NODE":"286.8273","RCS_SIZE":"LARGE","DECAY_DATE":null},{"MEAN_MOTION_DOT":"0.00011865","MEAN_MOTION":"15.06414603","FILE":"3910633","RCS_SIZE":"LARGE","DECAY_DATE":null,"RA_OF_ASC_NODE":"262.5020","LAUNCH_DATE":"2020-09-03","MEAN_MOTION_DDOT":"0.0000000000000","GP_ID":"232040607","PERIOD":"95.591","SITE":"AFETR","CLASSIFICATION_TYPE":"U","SEMIMAJOR_AXIS":"6925.304","TLE_LINE2":"2 46382  53.0545 262.5020 0001295  89.1996 270.9141 15.06414603150137","OBJECT_ID":"2020-062BK","OBJECT_TYPE":"PAYLOAD","OBJECT_NAME":"STARLINK-1769","TIME_SYSTEM":"UTC","PERIAPSIS":"546.272","CENTER_NAME":"EARTH","MEAN_ANOMALY":"270.9141","REV_AT_EPOCH":"15013","ARG_OF_PERICENTER":"89.1996","COUNTRY_CODE":"US","INCLINATION":"53.0545","ECCENTRICITY":"0.00012950","REF_FRAME":"TEME","NORAD_CAT_ID":"46382","EPOCH":"2023-05-17T13:50:50.723808","EPHEMERIS_TYPE":"0","BSTAR":"0.00081378000000","TLE_LINE1":"1 46382U 20062BK  23137.57697597  .00011865  00000-0  81378-3 0  9995","MEAN_ELEMENT_THEORY":"SGP4","ELEMENT_SET_NO":"999","APOAPSIS":"548.066"},{"FILE":"3910633","RA_OF_ASC_NODE":"306.0742","RCS_SIZE":"LARGE","DECAY_DATE":null,"MEAN_MOTION_DOT":"0.00005273","MEAN_MOTION":"15.06392519","PERIOD":"95.593","GP_ID":"232041357","MEAN_MOTION_DDOT":"0.0000000000000","CLASSIFICATION_TYPE":"U","SITE":"AFETR","LAUNCH_DATE":"2020-09-03","REV_AT_EPOCH":"14954","MEAN_ANOMALY":"275.8796","CENTER_NAME":"EARTH","ECCENTRICITY":"0.00011260","INCLINATION":"53.0537","ARG_OF_PERICENTER":"84.2321","COUNTRY_CODE":"US","OBJECT_ID":"2020-062BL","SEMIMAJOR_AXIS":"6925.371","TLE_LINE2":"2 46383  53.0537 306.0742 0001126  84.2321 275.8796 15.06392519149549","TIME_SYSTEM":"UTC","PERIAPSIS":"546.457","OBJECT_NAME":"STARLINK-1770","OBJECT_TYPE":"PAYLOAD","ELEMENT_SET_NO":"999","APOAPSIS":"548.016","BSTAR":"0.00037271000000","TLE_LINE1":"1 46383U 20062BL  23137.89534866  .00005273  00000-0  37271-3 0  9999","EPHEMERIS_TYPE":"0","EPOCH":"2023-05-17T21:29:18.124224","NORAD_CAT_ID":"46383","REF_FRAME":"TEME","MEAN_ELEMENT_THEORY":"SGP4"},{"OBJECT_ID":"2020-062BM","TLE_LINE2":"2 46384  53.0531 306.0624 0001101  75.8552 284.2559 15.06400358149540","SEMIMAJOR_AXIS":"6925.347","OBJECT_TYPE":"PAYLOAD","TIME_SYSTEM":"UTC","PERIAPSIS":"546.450","OBJECT_NAME":"STARLINK-1771","MEAN_ANOMALY":"284.2559","REV_AT_EPOCH":"14954","CENTER_NAME":"EARTH","ARG_OF_PERICENTER":"75.8552","COUNTRY_CODE":"US","ECCENTRICITY":"0.00011010","INCLINATION":"53.0531","NORAD_CAT_ID":"46384","REF_FRAME":"TEME","BSTAR":"0.00056549000000","TLE_LINE1":"1 46384U 20062BM  23137.89903679  .00008152  00000-0  56549-3 0  9990","EPHEMERIS_TYPE":"0","EPOCH":"2023-05-17T21:34:36.778656","MEAN_ELEMENT_THEORY":"SGP4","ELEMENT_SET_NO":"999","APOAPSIS":"547.975","MEAN_MOTION_DOT":"0.00008152","MEAN_MOTION":"15.06400358","FILE":"3910633","RA_OF_ASC_NODE":"306.0624","RCS_SIZE":"LARGE","DECAY_DATE":null,"LAUNCH_DATE":"2020-09-03","MEAN_MOTION_DDOT":"0.0000000000000","GP_ID":"232039608","PERIOD":"95.592","SITE":"AFETR","CLASSIFICATION_TYPE":"U"},{"MEAN_MOTION_DDOT":"0.0000000000000","GP_ID":"232040620","PERIOD":"95.592","CLASSIFICATION_TYPE":"U","SITE":"AFETR","LAUNCH_DATE":"2020-10-06","FILE":"3910633","RCS_SIZE":"LARGE","DECAY_DATE":null,"RA_OF_ASC_NODE":"107.2469","MEAN_MOTION_DOT":"-0.00001080","MEAN_MOTION":"15.06396455","ELEMENT_SET_NO":"999","APOAPSIS":"548.351","NORAD_CAT_ID":"46532","REF_FRAME":"TEME","EPOCH":"2023-05-17T15:12:25.555104","EPHEMERIS_TYPE":"0","TLE_LINE1":"1 46532U 20070A   23137.63362911 -.00001080  00000-0 -53630-4 0  9998","BSTAR":"-0.00005363000000","MEAN_ELEMENT_THEORY":"SGP4","CENTER_NAME":"EARTH","REV_AT_EPOCH":"14470","MEAN_ANOMALY":"277.6999","ARG_OF_PERICENTER":"82.4174","COUNTRY_CODE":"US","INCLINATION":"53.0540","ECCENTRICITY":"0.00016270","SEMIMAJOR_AXIS":"6925.359","TLE_LINE2":"2 46532  53.0540 107.2469 0001627  82.4174 277.6999 15.06396455144709","OBJECT_ID":"2020-070A","OBJECT_TYPE":"PAYLOAD","OBJECT_NAME":"STARLINK-1644","PERIAPSIS":"546.098","TIME_SYSTEM":"UTC"},{"OBJECT_NAME":"STARLINK-1648","PERIAPSIS":"546.166","TIME_SYSTEM":"UTC","OBJECT_TYPE":"PAYLOAD","TLE_LINE2":"2 46533  53.0547 107.2036 0001534  81.8417 278.2746 15.06395170144707","SEMIMAJOR_AXIS":"6925.363","OBJECT_ID":"2020-070B","INCLINATION":"53.0547","ECCENTRICITY":"0.00015340","ARG_OF_PERICENTER":"81.8417","COUNTRY_CODE":"US","CENTER_NAME":"EARTH","REV_AT_EPOCH":"14470","MEAN_ANOMALY":"278.2746","MEAN_ELEMENT_THEORY":"SGP4","EPHEMERIS_TYPE":"0","EPOCH":"2023-05-17T15:28:22.035072","BSTAR":"0.00000060732000","TLE_LINE1":"1 46533U 20070B   23137.64469948 -.00000272  00000-0  60732-6 0  9992","REF_FRAME":"TEME","NORAD_CAT_ID":"46533","APOAPSIS":"548.291","ELEMENT_SET_NO":"999","MEAN_MOTION":"15.06395170","MEAN_MOTION_DOT":"-0.00000272","DECAY_DATE":null,"RCS_SIZE":"LARGE","RA_OF_ASC_NODE":"107.2036","FILE":"3910633","LAUNCH_DATE":"2020-10-06","SITE":"AFETR","CLASSIFICATION_TYPE":"U","PERIOD":"95.592","GP_ID":"232041370","MEAN_MOTION_DDOT":"0.0000000000000"},{"MEAN_ELEMENT_THEORY":"SGP4","NORAD_CAT_ID":"46534","REF_FRAME":"TEME","EPOCH":"2023-05-17T07:04:07.375584","EPHEMERIS_TYPE":"0","BSTAR":"0.00038412000000","TLE_LINE1":"1 46534U 20070C   23137.29452981  .00005446  00000-0  38412-3 0  9997","APOAPSIS":"548.101","ELEMENT_SET_NO":"999","OBJECT_TYPE":"PAYLOAD","OBJECT_NAME":"STARLINK-1659","TIME_SYSTEM":"UTC","PERIAPSIS":"546.287","TLE_LINE2":"2 46534  53.0532 108.7745 0001310 101.4628 258.6508 15.06406445144650","SEMIMAJOR_AXIS":"6925.329","OBJECT_ID":"2020-070C","ARG_OF_PERICENTER":"101.4628","COUNTRY_CODE":"US","INCLINATION":"53.0532","ECCENTRICITY":"0.00013100","CENTER_NAME":"EARTH","MEAN_ANOMALY":"258.6508","REV_AT_EPOCH":"14465","LAUNCH_DATE":"2020-10-06","CLASSIFICATION_TYPE":"U","SITE":"AFETR","GP_ID":"232039621","MEAN_MOTION_DDOT":"0.0000000000000","PERIOD":"95.592","MEAN_MOTION":"15.06406445","MEAN_MOTION_DOT":"0.00005446","RCS_SIZE":"LARGE","DECAY_DATE":null,"RA_OF_ASC_NODE":"108.7745","FILE":"3910633"}];
